[
    {
        "Altitude(m)": 702812.9137497778,
        "Argument of Periapsis(deg)": 0.007973084830638947,
        "Eccentricity": 0.0,
        "Inclination(deg)": 45.0,
        "Latitude(deg)": 17.054811843998603,
        "Longitude(deg)": 162.23335896827908,
        "Mean Anomaly(deg)": 24.436851653236566,
        "RAAN(deg)": 244.99247364097928,
        "Satellite Name": "Constellation 1 1079",
        "Satellite Number": 1079,
        "Semi-Major Axis(m)": 7083131.272910544,
        "Time(s)": 133
    },
    {
        "Altitude(m)": 702815.1330667087,
        "Argument of Periapsis(deg)": 0.008033032836884352,
        "Eccentricity": 0.0,
        "Inclination(deg)": 45.0,
        "Latitude(deg)": 17.095942460246807,
        "Longitude(deg)": 162.2761420484693,
        "Mean Anomaly(deg)": 24.497552793486452,
        "RAAN(deg)": 244.99241705181373,
        "Satellite Name": "Constellation 1 1079",
        "Satellite Number": 1079,
        "Semi-Major Axis(m)": 7083131.272910544,
        "Time(s)": 134
    },
    {
        "Altitude(m)": 702817.3684176537,
        "Argument of Periapsis(deg)": 0.008092980843129758,
        "Eccentricity": 0.0,
        "Inclination(deg)": 45.0,
        "Latitude(deg)": 17.137062082629733,
        "Longitude(deg)": 162.31894572357672,
        "Mean Anomaly(deg)": 24.558253933736342,
        "RAAN(deg)": 244.99236046264818,
        "Satellite Name": "Constellation 1 1079",
        "Satellite Number": 1079,
        "Semi-Major Axis(m)": 7083131.272910544,
        "Time(s)": 135
    },
    {
        "Altitude(m)": 702819.6197751967,
        "Argument of Periapsis(deg)": 0.008152928849375162,
        "Eccentricity": 0.0,
        "Inclination(deg)": 45.0,
        "Latitude(deg)": 17.178170678337278,
        "Longitude(deg)": 162.36177004965566,
        "Mean Anomaly(deg)": 24.618955073986278,
        "RAAN(deg)": 244.99230387348254,
        "Satellite Name": "Constellation 1 1079",
        "Satellite Number": 1079,
        "Semi-Major Axis(m)": 7083131.272910544,
        "Time(s)": 136
    },
    {
        "Altitude(m)": 702821.8871118496,
        "Argument of Periapsis(deg)": 0.008212876855620568,
        "Eccentricity": 0.0,
        "Inclination(deg)": 45.0,
        "Latitude(deg)": 17.219268214518753,
        "Longitude(deg)": 162.40461508279148,
        "Mean Anomaly(deg)": 24.679656214236168,
        "RAAN(deg)": 244.992247284317,
        "Satellite Name": "Constellation 1 1079",
        "Satellite Number": 1079,
        "Semi-Major Axis(m)": 7083131.272910544,
        "Time(s)": 137
    },
    {
        "Altitude(m)": 702824.1704000594,
        "Argument of Periapsis(deg)": 0.008272824861865974,
        "Eccentricity": 0.0,
        "Inclination(deg)": 45.0,
        "Latitude(deg)": 17.260354658282814,
        "Longitude(deg)": 162.44748087910037,
        "Mean Anomaly(deg)": 24.74035735448605,
        "RAAN(deg)": 244.99219069515144,
        "Satellite Name": "Constellation 1 1079",
        "Satellite Number": 1079,
        "Semi-Major Axis(m)": 7083131.272910544,
        "Time(s)": 138
    },
    {
        "Altitude(m)": 702826.4696122156,
        "Argument of Periapsis(deg)": 0.00833277286811138,
        "Eccentricity": 0.0,
        "Inclination(deg)": 45.0,
        "Latitude(deg)": 17.301429976697268,
        "Longitude(deg)": 162.49036749472978,
        "Mean Anomaly(deg)": 24.801058494735987,
        "RAAN(deg)": 244.99213410598588,
        "Satellite Name": "Constellation 1 1079",
        "Satellite Number": 1079,
        "Semi-Major Axis(m)": 7083131.272910544,
        "Time(s)": 139
    },
    {
        "Altitude(m)": 702828.784720637,
        "Argument of Periapsis(deg)": 0.008392720874356788,
        "Eccentricity": 0.0,
        "Inclination(deg)": 45.0,
        "Latitude(deg)": 17.34249413678905,
        "Longitude(deg)": 162.5332749858581,
        "Mean Anomaly(deg)": 24.861759634985873,
        "RAAN(deg)": 244.99207751682033,
        "Satellite Name": "Constellation 1 1079",
        "Satellite Number": 1079,
        "Semi-Major Axis(m)": 7083131.272910544,
        "Time(s)": 140
    },
    {
        "Altitude(m)": 702831.1156975888,
        "Argument of Periapsis(deg)": 0.008452668880602192,
        "Eccentricity": 0.0,
        "Inclination(deg)": 45.0,
        "Latitude(deg)": 17.38354710554429,
        "Longitude(deg)": 162.57620324059752,
        "Mean Anomaly(deg)": 24.922460775235763,
        "RAAN(deg)": 244.99202092765478,
        "Satellite Name": "Constellation 1 1079",
        "Satellite Number": 1079,
        "Semi-Major Axis(m)": 7083131.272910544,
        "Time(s)": 141
    },
    {
        "Altitude(m)": 702833.4625152581,
        "Argument of Periapsis(deg)": 0.008512616886847598,
        "Eccentricity": 0.0,
        "Inclination(deg)": 45.0,
        "Latitude(deg)": 17.424588849907177,
        "Longitude(deg)": 162.61915265138262,
        "Mean Anomaly(deg)": 24.98316191548565,
        "RAAN(deg)": 244.99196433848914,
        "Satellite Name": "Constellation 1 1079",
        "Satellite Number": 1079,
        "Semi-Major Axis(m)": 7083131.272910544,
        "Time(s)": 142
    },
    {
        "Altitude(m)": 702835.8251457919,
        "Argument of Periapsis(deg)": 0.008572564893093004,
        "Eccentricity": 0.0,
        "Inclination(deg)": 45.0,
        "Latitude(deg)": 17.46561933678145,
        "Longitude(deg)": 162.6621231063876,
        "Mean Anomaly(deg)": 25.043863055735585,
        "RAAN(deg)": 244.9919077493236,
        "Satellite Name": "Constellation 1 1079",
        "Satellite Number": 1079,
        "Semi-Major Axis(m)": 7083131.272910544,
        "Time(s)": 143
    },
    {
        "Altitude(m)": 702838.2035612465,
        "Argument of Periapsis(deg)": 0.008632512899338408,
        "Eccentricity": 0.0,
        "Inclination(deg)": 45.0,
        "Latitude(deg)": 17.506638533029193,
        "Longitude(deg)": 162.70511466191473,
        "Mean Anomaly(deg)": 25.104564195985468,
        "RAAN(deg)": 244.99185116015803,
        "Satellite Name": "Constellation 1 1079",
        "Satellite Number": 1079,
        "Semi-Major Axis(m)": 7083131.272910544,
        "Time(s)": 144
    },
    {
        "Altitude(m)": 702840.5977336351,
        "Argument of Periapsis(deg)": 0.008692460905583814,
        "Eccentricity": 0.0,
        "Inclination(deg)": 45.0,
        "Latitude(deg)": 17.54764640547104,
        "Longitude(deg)": 162.74812737429735,
        "Mean Anomaly(deg)": 25.165265336235358,
        "RAAN(deg)": 244.99179457099248,
        "Satellite Name": "Constellation 1 1079",
        "Satellite Number": 1079,
        "Semi-Major Axis(m)": 7083131.272910544,
        "Time(s)": 145
    },
    {
        "Altitude(m)": 702843.0076349081,
        "Argument of Periapsis(deg)": 0.00875240891182922,
        "Eccentricity": 0.0,
        "Inclination(deg)": 45.0,
        "Latitude(deg)": 17.588642920885967,
        "Longitude(deg)": 162.79116129989947,
        "Mean Anomaly(deg)": 25.225966476485294,
        "RAAN(deg)": 244.99173798182693,
        "Satellite Name": "Constellation 1 1079",
        "Satellite Number": 1079,
        "Semi-Major Axis(m)": 7083131.272910544,
        "Time(s)": 146
    },
    {
        "Altitude(m)": 702845.4332369367,
        "Argument of Periapsis(deg)": 0.008812356918074627,
        "Eccentricity": 0.0,
        "Inclination(deg)": 45.0,
        "Latitude(deg)": 17.629628046011206,
        "Longitude(deg)": 162.83421649511607,
        "Mean Anomaly(deg)": 25.28666761673518,
        "RAAN(deg)": 244.9916813926613,
        "Satellite Name": "Constellation 1 1079",
        "Satellite Number": 1079,
        "Semi-Major Axis(m)": 7083131.272910544,
        "Time(s)": 147
    },
    {
        "Altitude(m)": 702847.8745115487,
        "Argument of Periapsis(deg)": 0.008872304924320031,
        "Eccentricity": 0.0,
        "Inclination(deg)": 45.0,
        "Latitude(deg)": 17.670601747542566,
        "Longitude(deg)": 162.87729284827614,
        "Mean Anomaly(deg)": 25.34736875698507,
        "RAAN(deg)": 244.99162480349574,
        "Satellite Name": "Constellation 1 1079",
        "Satellite Number": 1079,
        "Semi-Major Axis(m)": 7083131.272910544,
        "Time(s)": 148
    },
    {
        "Altitude(m)": 702850.3314305057,
        "Argument of Periapsis(deg)": 0.008932252930565437,
        "Eccentricity": 0.0,
        "Inclination(deg)": 45.0,
        "Latitude(deg)": 17.711563992132938,
        "Longitude(deg)": 162.92039075203067,
        "Mean Anomaly(deg)": 25.408069897234956,
        "RAAN(deg)": 244.9915682143302,
        "Satellite Name": "Constellation 1 1079",
        "Satellite Number": 1079,
        "Semi-Major Axis(m)": 7083131.272910544,
        "Time(s)": 149
    },
    {
        "Altitude(m)": 702852.8039654966,
        "Argument of Periapsis(deg)": 0.008992200936810843,
        "Eccentricity": 0.0,
        "Inclination(deg)": 45.0,
        "Latitude(deg)": 17.752514746394045,
        "Longitude(deg)": 162.96351009477021,
        "Mean Anomaly(deg)": 25.468771037484892,
        "RAAN(deg)": 244.99151162516463,
        "Satellite Name": "Constellation 1 1079",
        "Satellite Number": 1079,
        "Semi-Major Axis(m)": 7083131.272910544,
        "Time(s)": 150
    },
    {
        "Altitude(m)": 702855.292088157,
        "Argument of Periapsis(deg)": 0.009052148943056249,
        "Eccentricity": 0.0,
        "Inclination(deg)": 45.0,
        "Latitude(deg)": 17.793453976895155,
        "Longitude(deg)": 163.0066509330134,
        "Mean Anomaly(deg)": 25.529472177734775,
        "RAAN(deg)": 244.99145503599908,
        "Satellite Name": "Constellation 1 1079",
        "Satellite Number": 1079,
        "Semi-Major Axis(m)": 7083131.272910544,
        "Time(s)": 151
    }
]